0 FENGYUN 1C DEB
1 35243U 99025DRB 13281.53730444  .00001674  00000-0  50113-3 0  3734
2 35243 098.8697 025.8297 0144708 002.0084 053.3705 14.38399348264475
0 FENGYUN 1C DEB
1 35243U 99025DRB 13283.08058134  .00001981  00000-0  59037-3 0  3741
2 35243 098.8700 027.4239 0144627 357.4279 124.8679 14.38412894264697
0 FENGYUN 1C DEB
1 35243U 99025DRB 13287.11481660  .00002675  00000-0  79147-3 0  3759
2 35243 098.8700 031.5912 0144539 345.4620 135.4108 14.38424250265279
0 FENGYUN 1C DEB
1 35243U 99025DRB 13289.13181837  .00003463  00000-0  10200-2 0  3767
2 35243 098.8707 033.6754 0144447 339.4753 140.1796 14.38437538265562
0 FENGYUN 1C DEB
1 35243U 99025DRB 13289.53669333  .00003064  00000-0  90436-3 0  3771
2 35243 098.8707 034.0942 0144452 338.2427 076.7842 14.38435230265627
0 FENGYUN 1C DEB
1 35243U 99025DRB 13292.12298993  .00002789  00000-0  82458-3 0  3789
2 35243 098.8705 036.7671 0144365 330.5405 149.7009 14.38447036265990
0 FENGYUN 1C DEB
1 35243U 99025DRB 13294.26117284  .00003177  00000-0  93749-3 0  3797
2 35243 098.8699 038.9765 0144116 324.2388 062.1110 14.38456041266307
